[{"OBJECT_NAME":"BRO-13","OBJECT_ID":"2024-043K","EPOCH":"2026-03-09T22:19:47.829216","MEAN_MOTION":14.96296765,"ECCENTRICITY":0.00083947,"INCLINATION":97.8333,"RA_OF_ASC_NODE":199.7446,"ARG_OF_PERICENTER":338.0901,"MEAN_ANOMALY":21.996,"EPHEMERIS_TYPE":0,"CLASSIFICATION_TYPE":"U","NORAD_CAT_ID":59107,"ELEMENT_SET_NO":999,"REV_AT_EPOCH":10977,"BSTAR":0.00013050562,"MEAN_MOTION_DOT":1.416e-5,"MEAN_MOTION_DDOT":0},{"OBJECT_NAME":"STARLINK-34458","OBJECT_ID":"2025-126S","EPOCH":"2026-03-09T20:04:15.343680","MEAN_MOTION":14.98329544,"ECCENTRICITY":0.00028584,"INCLINATION":70.0023,"RA_OF_ASC_NODE":34.0923,"ARG_OF_PERICENTER":266.5714,"MEAN_ANOMALY":93.5118,"EPHEMERIS_TYPE":0,"CLASSIFICATION_TYPE":"U","NORAD_CAT_ID":64360,"ELEMENT_SET_NO":999,"REV_AT_EPOCH":4070,"BSTAR":0.00045292886,"MEAN_MOTION_DOT":5.315e-5,"MEAN_MOTION_DDOT":0}]
